{"fetched_at":"2026-03-29T16:36:15Z","count":15609,"tles":[{"name":"STARLINK-11628 [DTC]","line1":"1 63139U 25043H   26087.83497986  .00209885  00000+0  15796-2 0  9994","line2":"2 63139  43.0003 135.2722 0002670 307.7372  52.3253 15.71117153 62482","category":"Starlink"}]}